{"type": "FeatureCollection", "features": [ {"type": "Feature", "properties": {"norad_id": 41335, "name": "SENTINEL-3A", "group": "resource", "lat": -36.71237092374267, "lon": 55.33585879725098, "alt_km": 809.3780541867382, "timestamp": "2025-12-09T18:55:16.895902+00:00", "meta": {"OBJECT_NAME": "SENTINEL-3A", "OBJECT_ID": "2016-011A", "EPOCH": "2025-12-09T14:02:45.846240", "MEAN_MOTION": 14.26744898, "ECCENTRICITY": 9.553e-05, "INCLINATION": 98.6211, "RA_OF_ASC_NODE": 48.6399, "ARG_OF_PERICENTER": 93.4438, "MEAN_ANOMALY": 266.6851, "EPHEMERIS_TYPE": 0, "CLASSIFICATION_TYPE": "U", "NORAD_CAT_ID": 41335, "ELEMENT_SET_NO": 999, "REV_AT_EPOCH": 51102, "BSTAR": 0.0001272842, "MEAN_MOTION_DOT": 2.64e-06, "MEAN_MOTION_DDOT": 0}, "tle": {"line1": "1 41335U 16011A   25343.58525285  .00000264  00000+0  12728-3 0  9996", "line2": "2 41335  98.6211  48.6399 0000955  93.4438 266.6851 14.26744898511020"}}, "geometry": {"type": "Point", "coordinates": [55.33585879725098, -36.71237092374267]}}, {"type": "Feature", "properties": {"norad_id": 41556, "name": "ZIYUAN 3-2 (ZY 3-2)", "group": "resource", "lat": 29.984624786684915, "lon": -117.69321983505726, "alt_km": 503.12365243722525, "timestamp": "2025-12-09T18:55:16.895912+00:00", "meta": {"OBJECT_NAME": "ZIYUAN 3-2 (ZY 3-2)", "OBJECT_ID": "2016-033A", "EPOCH": "2025-12-09T15:06:27.582624", "MEAN_MOTION": 15.2143081, "ECCENTRICITY": 0.00124288, "INCLINATION": 97.4041, "RA_OF_ASC_NODE": 57.8474, "ARG_OF_PERICENTER": 261.1847, "MEAN_ANOMALY": 98.7981, "EPHEMERIS_TYPE": 0, "CLASSIFICATION_TYPE": "U", "NORAD_CAT_ID": 41556, "ELEMENT_SET_NO": 999, "REV_AT_EPOCH": 52916, "BSTAR": 0.00048931246, "MEAN_MOTION_DOT": 0.00010948, "MEAN_MOTION_DDOT": 0}, "tle": {"line1": "1 41556U 16033A   25343.62948591  .00010948  00000+0  48931-3 0  9994", "line2": "2 41556  97.4041  57.8474 0012428 261.1847  98.7981 15.21430810529169"}}, "geometry": {"type": "Point", "coordinates": [-117.69321983505726, 29.984624786684915]}}, {"type": "Feature", "properties": {"norad_id": 41599, "name": "CARTOSAT-2C", "group": "resource", "lat": 61.94257447529244, "lon": -124.66717249560998, "alt_km": 496.6529777528194, "timestamp": "2025-12-09T18:55:16.895923+00:00", "meta": {"OBJECT_NAME": "CARTOSAT-2C", "OBJECT_ID": "2016-040A", "EPOCH": "2025-12-09T15:14:50.297568", "MEAN_MOTION": 15.19251075, "ECCENTRICITY": 0.0010923, "INCLINATION": 97.4764, "RA_OF_ASC_NODE": 40.9173, "ARG_OF_PERICENTER": 73.867, "MEAN_ANOMALY": 286.3766, "EPHEMERIS_TYPE": 0, "CLASSIFICATION_TYPE": "U", "NORAD_CAT_ID": 41599, "ELEMENT_SET_NO": 999, "REV_AT_EPOCH": 52493, "BSTAR": 0.00046206817, "MEAN_MOTION_DOT": 9.691e-05, "MEAN_MOTION_DDOT": 0}, "tle": {"line1": "1 41599U 16040A   25343.63530437  .00009691  00000+0  46207-3 0  9993", "line2": "2 41599  97.4764  40.9173 0010923  73.8670 286.3766 15.19251075524934"}}, "geometry": {"type": "Point", "coordinates": [-124.66717249560998, 61.94257447529244]}}, {"type": "Feature", "properties": {"norad_id": 41601, "name": "SKYSAT-C1", "group": "resource", "lat": 31.094063538673304, "lon": 16.729230234505728, "alt_km": 464.88243433193384, "timestamp": "2025-12-09T18:55:16.895933+00:00", "meta": {"OBJECT_NAME": "SKYSAT-C1", "OBJECT_ID": "2016-040C", "EPOCH": "2025-12-09T09:22:57.016416", "MEAN_MOTION": 15.32493174, "ECCENTRICITY": 0.0002745, "INCLINATION": 96.9826, "RA_OF_ASC_NODE": 20.5932, "ARG_OF_PERICENTER": 25.1532, "MEAN_ANOMALY": 334.9844, "EPHEMERIS_TYPE": 0, "CLASSIFICATION_TYPE": "U", "NORAD_CAT_ID": 41601, "ELEMENT_SET_NO": 999, "REV_AT_EPOCH": 52876, "BSTAR": 0.00040404839, "MEAN_MOTION_DOT": 0.00012613, "MEAN_MOTION_DDOT": 0}, "tle": {"line1": "1 41601U 16040C   25343.39093769  .00012613  00000+0  40405-3 0  9994", "line2": "2 41601  96.9826  20.5932 0002745  25.1532 334.9844 15.32493174528763"}}, "geometry": {"type": "Point", "coordinates": [16.729230234505728, 31.094063538673304]}}, {"type": "Feature", "properties": {"norad_id": 41603, "name": "LAPAN-A3", "group": "resource", "lat": -5.959913404989232, "lon": 160.70157803293753, "alt_km": 481.57561561707735, "timestamp": "2025-12-09T18:55:16.895943+00:00", "meta": {"OBJECT_NAME": "LAPAN-A3", "OBJECT_ID": "2016-040E", "EPOCH": "2025-12-09T14:58:32.679840", "MEAN_MOTION": 15.31513013, "ECCENTRICITY": 0.00100231, "INCLINATION": 97.1432, "RA_OF_ASC_NODE": 341.2933, "ARG_OF_PERICENTER": 345.9109, "MEAN_ANOMALY": 14.1852, "EPHEMERIS_TYPE": 0, "CLASSIFICATION_TYPE": "U", "NORAD_CAT_ID": 41603, "ELEMENT_SET_NO": 999, "REV_AT_EPOCH": 52578, "BSTAR": 0.00020107214, "MEAN_MOTION_DOT": 6.053e-05, "MEAN_MOTION_DDOT": 0}, "tle": {"line1": "1 41603U 16040E   25343.62398935  .00006053  00000+0  20107-3 0  9993", "line2": "2 41603  97.1432 341.2933 0010023 345.9109  14.1852 15.31513013525785"}}, "geometry": {"type": "Point", "coordinates": [160.70157803293753, -5.959913404989232]}}, {"type": "Feature", "properties": {"norad_id": 41604, "name": "BIROS", "group": "resource", "lat": 60.53148316429641, "lon": -152.20819526000236, "alt_km": 299.24563898969336, "timestamp": "2025-12-09T18:55:16.895953+00:00", "meta": {"OBJECT_NAME": "BIROS", "OBJECT_ID": "2016-040F", "EPOCH": "2025-12-09T01:47:24.559584", "MEAN_MOTION": 15.88119261, "ECCENTRICITY": 0.00032029, "INCLINATION": 97.0691, "RA_OF_ASC_NODE": 14.3635, "ARG_OF_PERICENTER": 156.004, "MEAN_ANOMALY": 204.1383, "EPHEMERIS_TYPE": 0, "CLASSIFICATION_TYPE": "U", "NORAD_CAT_ID": 41604, "ELEMENT_SET_NO": 999, "REV_AT_EPOCH": 52814, "BSTAR": 0.00066699357, "MEAN_MOTION_DOT": 0.00184271, "MEAN_MOTION_DDOT": 0}, "tle": {"line1": "1 41604U 16040F   25343.07458981  .00184271  00000+0  66699-3 0  9996", "line2": "2 41604  97.0691  14.3635 0003202 156.0040 204.1383 15.88119261528147"}}, "geometry": {"type": "Point", "coordinates": [-152.20819526000236, 60.53148316429641]}}, {"type": "Feature", "properties": {"norad_id": 41727, "name": "GAOFEN-3", "group": "resource", "lat": -10.551249210115465, "lon": 167.8414256910019, "alt_km": 756.0668246955056, "timestamp": "2025-12-09T18:55:16.895964+00:00", "meta": {"OBJECT_NAME": "GAOFEN-3", "OBJECT_ID": "2016-049A", "EPOCH": "2025-12-09T14:42:38.040192", "MEAN_MOTION": 14.42212176, "ECCENTRICITY": 0.00015051, "INCLINATION": 98.4036, "RA_OF_ASC_NODE": 349.2465, "ARG_OF_PERICENTER": 63.9984, "MEAN_ANOMALY": 296.136, "EPHEMERIS_TYPE": 0, "CLASSIFICATION_TYPE": "U", "NORAD_CAT_ID": 41727, "ELEMENT_SET_NO": 999, "REV_AT_EPOCH": 49132, "BSTAR": 2.4603789e-05, "MEAN_MOTION_DOT": 3.8e-07, "MEAN_MOTION_DDOT": 0}, "tle": {"line1": "1 41727U 16049A   25343.61294028  .00000038  00000+0  24604-4 0  9990", "line2": "2 41727  98.4036 349.2465 0001505  63.9984 296.1360 14.42212176491322"}}, "geometry": {"type": "Point", "coordinates": [167.8414256910019, -10.551249210115465]}}, {"type": "Feature", "properties": {"norad_id": 41771, "name": "SKYSAT-C4", "group": "resource", "lat": -44.15493462764791, "lon": -177.67004898154528, "alt_km": 446.71979055430256, "timestamp": "2025-12-09T18:55:16.895974+00:00", "meta": {"OBJECT_NAME": "SKYSAT-C4", "OBJECT_ID": "2016-058B", "EPOCH": "2025-12-09T00:49:12.473760", "MEAN_MOTION": 15.42085038, "ECCENTRICITY": 0.00011565, "INCLINATION": 96.9374, "RA_OF_ASC_NODE": 8.402, "ARG_OF_PERICENTER": 132.7744, "MEAN_ANOMALY": 227.3602, "EPHEMERIS_TYPE": 0, "CLASSIFICATION_TYPE": "U", "NORAD_CAT_ID": 41771, "ELEMENT_SET_NO": 999, "REV_AT_EPOCH": 51610, "BSTAR": 0.00040944192, "MEAN_MOTION_DOT": 0.00017439, "MEAN_MOTION_DDOT": 0}, "tle": {"line1": "1 41771U 16058B   25343.03417215  .00017439  00000+0  40944-3 0  9997", "line2": "2 41771  96.9374   8.4020 0001156 132.7744 227.3602 15.42085038516106"}}, "geometry": {"type": "Point", "coordinates": [-177.67004898154528, -44.15493462764791]}}, {"type": "Feature", "properties": {"norad_id": 41772, "name": "SKYSAT-C5", "group": "resource", "lat": -32.65719026921634, "lon": -156.90938121028637, "alt_km": 465.8439273698423, "timestamp": "2025-12-09T18:55:16.895988+00:00", "meta": {"OBJECT_NAME": "SKYSAT-C5", "OBJECT_ID": "2016-058C", "EPOCH": "2025-12-09T02:21:16.658208", "MEAN_MOTION": 15.35258883, "ECCENTRICITY": 0.00022673, "INCLINATION": 97.0758, "RA_OF_ASC_NODE": 26.9942, "ARG_OF_PERICENTER": 143.2849, "MEAN_ANOMALY": 216.8551, "EPHEMERIS_TYPE": 0, "CLASSIFICATION_TYPE": "U", "NORAD_CAT_ID": 41772, "ELEMENT_SET_NO": 999, "REV_AT_EPOCH": 51460, "BSTAR": 0.00035120172, "MEAN_MOTION_DOT": 0.00011953, "MEAN_MOTION_DDOT": 0}, "tle": {"line1": "1 41772U 16058C   25343.09810947  .00011953  00000+0  35120-3 0  9998", "line2": "2 41772  97.0758  26.9942 0002267 143.2849 216.8551 15.35258883514601"}}, "geometry": {"type": "Point", "coordinates": [-156.90938121028637, -32.65719026921634]}}, {"type": "Feature", "properties": {"norad_id": 41773, "name": "SKYSAT-C2", "group": "resource", "lat": -21.7900580410636, "lon": -174.39013376920465, "alt_km": 462.9467065862191, "timestamp": "2025-12-09T18:55:16.895999+00:00", "meta": {"OBJECT_NAME": "SKYSAT-C2", "OBJECT_ID": "2016-058D", "EPOCH": "2025-12-09T00:51:36.970848", "MEAN_MOTION": 15.37139367, "ECCENTRICITY": 0.00046119, "INCLINATION": 97.0362, "RA_OF_ASC_NODE": 7.7195, "ARG_OF_PERICENTER": 43.8765, "MEAN_ANOMALY": 316.2846, "EPHEMERIS_TYPE": 0, "CLASSIFICATION_TYPE": "U", "NORAD_CAT_ID": 41773, "ELEMENT_SET_NO": 999, "REV_AT_EPOCH": 51579, "BSTAR": 0.00037735434, "MEAN_MOTION_DOT": 0.00013655, "MEAN_MOTION_DDOT": 0}, "tle": {"line1": "1 41773U 16058D   25343.03584457  .00013655  00000+0  37735-3 0  9992", "line2": "2 41773  97.0362   7.7195 0004611  43.8765 316.2846 15.37139367515797"}}, "geometry": {"type": "Point", "coordinates": [-174.39013376920465, -21.7900580410636]}}]}